STARLINK-2035           
1 47651U 21012AH  23273.29142507  .00004665  00000+0  33173-3 0  9996
2 47651  53.0520 113.3088 0001661  94.9089 265.2090 15.06414377145111
STARLINK-2036           
1 47652U 21012AJ  23272.84910327  .00012453  00000+0  85272-3 0  9991
2 47652  53.0532 115.2469 0001672  93.0739 267.0442 15.06429772145568
STARLINK-2037           
1 47653U 21012AK  23272.77722533  .00010856  00000+0  74615-3 0  9998
2 47653  53.0536  95.5656 0001125  98.1357 261.9759 15.06420834145829
STARLINK-2038           
1 47654U 21012AL  23272.85278401  .00015714  00000+0  10705-2 0  9995
2 47654  53.0539 115.2311 0001475  95.4766 264.6391 15.06434587145566
STARLINK-2039           
1 47655U 21012AM  23272.84541399  .00016271  00000+0  11076-2 0  9995
2 47655  53.0536 115.2645 0001480  88.1875 271.9283 15.06437496145563
STARLINK-2040           
1 47656U 21012AN  23272.86199752  .00010711  00000+0  73629-3 0  9996
2 47656  53.0534  95.1888 0001603  80.0947 280.0222 15.06427843145845
STARLINK-2041           
1 47657U 21012AP  23273.26560681  .00002897  00000+0  21318-3 0  9999
2 47657  53.0539 113.3752 0001526  96.9908 263.1254 15.06422056145119
STARLINK-2042           
1 47658U 21012AQ  23272.79381250  .00013014  00000+0  89029-3 0  9996
2 47658  53.0539 115.4928 0001463  93.3404 266.7753 15.06427426145579
STARLINK-2043           
1 47659U 21012AR  23273.48307562  .00025052  00000+0  16927-2 0  9999
2 47659  53.0546 352.4007 0001263 109.9085 250.2040 15.06445827146816
STARLINK-2044           
1 47660U 21012AS  23273.43614820  .00008505  00000+0  58874-3 0  9996
2 47660  53.0554 343.2382 0001557 103.5228 256.5934 15.06426284146947
STARLINK-2051           
1 47661U 21012AT  23272.82514092  .00011612  00000+0  79678-3 0  9997
2 47661  53.0537  95.3561 0001470  95.8579 264.2577 15.06417234145829
STARLINK-2052           
1 47662U 21012AU  23272.80576030  .00016898  00000+0  11495-2 0  9999
2 47662  53.0549  95.4426 0001373 101.2502 258.8641 15.06435170145846
STARLINK-2053           
1 47663U 21012AV  23273.46652288  .00025734  00000+0  17379-2 0  9999
2 47663  53.0552  12.7950 0001211 103.6099 256.5025 15.06449890146535
STARLINK-2054           
1 47664U 21012AW  23272.80670411  .00016926  00000+0  11514-2 0  9993
2 47664  53.0541  95.4376 0001274 108.6445 251.4683 15.06435216145847
STARLINK-2056           
1 47665U 21012AX  23272.72055693  .00009435  00000+0  65105-3 0  9997
2 47665  53.0537  90.8737 0001476  86.1752 273.9406 15.06422666145890
STARLINK-2057           
1 47666U 21012AY  23272.78324976  .00002334  00000+0  17550-3 0  9999
2 47666  53.0542  90.8990 0001263  81.2849 278.8283 15.06405827145904
STARLINK-2058           
1 47667U 21012AZ  23272.83804522  .00015960  00000+0  10869-2 0  9990
2 47667  53.0531 115.2975 0001642  75.9830 284.1341 15.06433835145544
STARLINK-2059           
1 47668U 21012BA  23272.81407370  .00017321  00000+0  11776-2 0  9990
2 47668  53.0536  95.4013 0001424  92.4045 267.7107 15.06438623145842
STARLINK-2062           
1 47670U 21012BC  23272.82881922  .00016505  00000+0  11231-2 0  9992
2 47670  53.0533  95.3369 0001647  93.4503 266.6674 15.06440228145832
STARLINK-2064           
1 47671U 21012BD  23272.94308122  .00014818  00000+0  10105-2 0  9996
2 47671  53.0545  94.8258 0001273  95.8683 264.2451 15.06439071145861
STARLINK-2065           
1 47672U 21012BE  23273.58334491 -.00027334  00000+0 -17434-2 0  9997
2 47672  53.0537  81.9396 0001407  85.7828 268.5757 15.08042622145579
STARLINK-2066           
1 47673U 21012BF  23272.83250848  .00015306  00000+0  10432-2 0  9993
2 47673  53.0529  95.3200 0001659  91.4751 268.6428 15.06435526145834
STARLINK-2067           
1 47674U 21012BG  23272.77996479  .00016194  00000+0  11026-2 0  9990
2 47674  53.0522  95.5463 0000847  90.5972 269.5114 15.06432763145836
STARLINK-2078           
1 47675U 21012BH  23272.77353142  .00012455  00000+0  85294-3 0  9990
2 47675  53.0519  95.5849 0001431 104.9303 255.1845 15.06426628145834
STARLINK-2083           
1 47676U 21012BJ  23273.43239025  .00021452  00000+0  14527-2 0  9995
2 47676  53.0557 342.6278 0001496 104.4452 255.6703 15.06450436146956
STARLINK-2090           
1 47677U 21012BK  23273.29047000  .00001928  00000+0  14827-3 0  9990
2 47677  53.0534 113.2509 0001451 107.6682 252.4465 15.06408897145113
STARLINK-2095           
1 47679U 21012BM  23272.85551377 -.00000617  00000+0 -22536-4 0  9993
2 47679  53.0548 115.2180 0001289  98.4074 261.7062 15.06405505145577
STARLINK-2068           
1 47722U 21017A   23273.23015800  .00026439  00000+0  17859-2 0  9994
2 47722  53.0538 238.7783 0001485  79.7152 280.4004 15.06427470143625
STARLINK-2107           
1 47723U 21017B   23273.03892751  .00031900  00000+0  21485-2 0  9990
2 47723  53.0532 174.3962 0001276  74.4838 285.6292 15.06439527144471
STARLINK-2116           
1 47724U 21017C   23273.00943166  .00014299  00000+0  97600-3 0  9990
2 47724  53.0553 174.5246 0001281 119.0831 241.0286 15.06433694144431
STARLINK-2125           
1 47725U 21017D   23273.17621154  .00001290  00000+0  10547-3 0  9991
2 47725  53.0526 243.7763 0001487  84.4325 275.6833 15.06409926142863
STARLINK-2126           
1 47726U 21017E   23273.20655493  .00028116  00000+0  18090-2 0  9995
2 47726  53.0552 243.4215 0003119  73.7461 286.3872 15.08191354143495
STARLINK-2129           
1 47727U 21017F   23272.97992605  .00035656  00000+0  23978-2 0  9996
2 47727  53.0542 164.6607 0001767  95.5238 264.5953 15.06442599144616
STARLINK-2131           
1 47728U 21017G   23273.20203794  .00034204  00000+0  23023-2 0  9997
2 47728  53.0542 243.6557 0001712 103.3665 256.7515 15.06427575143557
STARLINK-2132           
1 47729U 21017H   23273.03203931  .00034467  00000+0  23189-2 0  9996
2 47729  53.0537 189.6296 0001370  81.1329 278.9815 15.06441377144232
STARLINK-2140           
1 47730U 21017J   23273.22461215  .00009543  00000+0  65873-3 0  9994
2 47730  53.0529 258.5690 0001362  84.3549 275.7595 15.06396563143290
STARLINK-2141           
1 47731U 21017K   23273.16424329  .00019391  00000+0  13161-2 0  9997
2 47731  53.0537 253.8320 0001329  85.1396 274.9745 15.06427661142729
STARLINK-2142           
1 47732U 21017L   23273.40247844  .00019689  00000+0  13359-2 0  9999
2 47732  53.0540 168.0072 0001287  67.8498 292.2627 15.06430419143940
STARLINK-2143           
1 47733U 21017M   23273.21860483  .00021410  00000+0  14508-2 0  9991
2 47733  53.0532 263.5884 0001369 101.0034 259.1109 15.06426904143279
STARLINK-2144           
1 47734U 21017N   23273.17161692  .00020687  00000+0  14028-2 0  9995
2 47734  53.0539 253.7984 0001489  91.1770 268.9389 15.06421504142726
STARLINK-2146           
1 47735U 21017P   23273.05506384  .00007172  00000+0  50007-3 0  9996
2 47735  53.0542 179.4905 0001691  93.0992 267.0191 15.06388090144387
STARLINK-2147           
1 47736U 21017Q   23273.20570957  .00022180  00000+0  15020-2 0  9992
2 47736  53.0542 243.6431 0001175  91.3376 268.7748 15.06431016143551
STARLINK-2148           
1 47737U 21017R   23272.85702569  .00000631  00000+0  28987-4 0  9994
2 47737  53.0544  69.5651 0001250  78.1257 281.9884 15.35406418145985
STARLINK-2149           
1 47738U 21017S   23273.17995783  .00025864  00000+0  17485-2 0  9997
2 47738  53.0532 244.0295 0001492  91.6987 268.4173 15.06408380142868
STARLINK-2150           
1 47739U 21017T   23273.20156341  .00018226  00000+0  12386-2 0  9990
2 47739  53.0528 268.6642 0001437  83.9356 276.1796 15.06421812143206
STARLINK-2152           
1 47740U 21017U   23273.18266478  .00000021  00000+0  20300-4 0  9993
2 47740  53.0543 253.7491 0001378 106.6618 253.4522 15.06407656142721
STARLINK-2154           
1 47741U 21017V   23273.19741821  .00014813  00000+0  10110-2 0  9995
2 47741  53.0515 253.6827 0001317  83.9800 276.1339 15.06410206143360
STARLINK-2156           
1 47742U 21017W   23273.34207955  .00022483  00000+0  15217-2 0  9993
2 47742  53.0538 243.0332 0001471  90.9780 269.1377 15.06442155142895
STARLINK-2157           
1 47743U 21017X   23273.23519976  .00024029  00000+0  16255-2 0  9992
2 47743  53.0537 243.5144 0001339  89.1085 271.0057 15.06423507143531
STARLINK-2158           
1 47744U 21017Y   23273.20844435  .00022856  00000+0  15471-2 0  9996
2 47744  53.0535 243.5857 0001613  69.9592 290.1571 15.06429966143555
STARLINK-2159           
1 47745U 21017Z   23273.17530450  .00018513  00000+0  12575-2 0  9999
2 47745  53.0540 253.7827 0001741  88.8737 271.2451 15.06429372142721
STARLINK-2160           
1 47746U 21017AA  23273.23427472  .00021959  00000+0  14873-2 0  9997
2 47746  53.0531 253.5179 0001589  83.4270 276.6900 15.06429584143356
STARLINK-2161           
1 47747U 21017AB  23273.23151338  .00020307  00000+0  13775-2 0  9999
2 47747  53.0537 243.5318 0001395  87.7391 272.3758 15.06419860143533
STARLINK-2162           
1 47748U 21017AC  23273.35682826  .00019901  00000+0  13499-2 0  9995
2 47748  53.0536 242.9649 0001629  80.4372 279.6801 15.06434907142898
STARLINK-2163           
1 47749U 21017AD  23273.17253789  .00022757  00000+0  15409-2 0  9994
2 47749  53.0525 243.7961 0001375  81.0139 279.1005 15.06419441142863
STARLINK-2164           
1 47750U 21017AE  23273.15041928  .00020671  00000+0  14017-2 0  9991
2 47750  53.0537 243.8951 0001475  80.4227 279.6929 15.06423139142869
STARLINK-2168           
1 47751U 21017AF  23273.18082479  .00024657  00000+0  16666-2 0  9991
2 47751  53.0539 233.7595 0001342  85.1025 275.0117 15.06441274143001
STARLINK-2169           
1 47752U 21017AG  23273.21447390  .00008637  00000+0  59801-3 0  9992
2 47752  53.0538 248.6045 0001411 101.0198 259.0950 15.06400040143487
STARLINK-2170           
1 47753U 21017AH  23273.19004246  .00016678  00000+0  11352-2 0  9991
2 47753  53.0535 253.7148 0001218  97.3207 262.7920 15.06422438143404
